CCSDS_OMM_VERS = 2.0
CREATION_DATE  = 
ORIGINATOR     = 

OBJECT_NAME    = SL-14 R/B
OBJECT_ID      = 1991-042B
CENTER_NAME    = EARTH
REF_FRAME      = TEME
TIME_SYSTEM    = UTC
MEAN_ELEMENT_THEORY = SGP/SGP4

EPOCH          = 2026-01-01T18:29:52.413792
MEAN_MOTION    = 14.81761418
ECCENTRICITY   = .0018568
INCLINATION    = 82.4936
RA_OF_ASC_NODE = 282.9415
ARG_OF_PERICENTER = 99.9916
MEAN_ANOMALY   = 260.3395

EPHEMERIS_TYPE = 0
CLASSIFICATION_TYPE = U
NORAD_CAT_ID   = 21423
ELEMENT_SET_NO = 999
REV_AT_EPOCH   = 84316
BSTAR          = .10677E-3
MEAN_MOTION_DOT = .868E-5
MEAN_MOTION_DDOT = 0

CCSDS_OMM_VERS = 2.0
CREATION_DATE  = 
ORIGINATOR     = 

OBJECT_NAME    = ERS-1
OBJECT_ID      = 1991-050A
CENTER_NAME    = EARTH
REF_FRAME      = TEME
TIME_SYSTEM    = UTC
MEAN_ELEMENT_THEORY = SGP/SGP4

EPOCH          = 2026-01-01T18:10:10.676064
MEAN_MOTION    = 14.39384070
ECCENTRICITY   = .0032676
INCLINATION    = 98.7896
RA_OF_ASC_NODE = 18.3121
ARG_OF_PERICENTER = 42.3026
MEAN_ANOMALY   = 318.0672

EPHEMERIS_TYPE = 0
CLASSIFICATION_TYPE = U
NORAD_CAT_ID   = 21574
ELEMENT_SET_NO = 999
REV_AT_EPOCH   = 80610
BSTAR          = .24989E-3
MEAN_MOTION_DOT = .736E-5
MEAN_MOTION_DDOT = 0

CCSDS_OMM_VERS = 2.0
CREATION_DATE  = 
ORIGINATOR     = 

OBJECT_NAME    = ARIANE 40 R/B
OBJECT_ID      = 1991-050F
CENTER_NAME    = EARTH
REF_FRAME      = TEME
TIME_SYSTEM    = UTC
MEAN_ELEMENT_THEORY = SGP/SGP4

EPOCH          = 2026-01-01T18:12:59.719392
MEAN_MOTION    = 14.42833082
ECCENTRICITY   = .0001975
INCLINATION    = 98.2137
RA_OF_ASC_NODE = 56.4644
ARG_OF_PERICENTER = 278.8564
MEAN_ANOMALY   = 81.2403

EPHEMERIS_TYPE = 0
CLASSIFICATION_TYPE = U
NORAD_CAT_ID   = 21610
ELEMENT_SET_NO = 999
REV_AT_EPOCH   = 80934
BSTAR          = .23311E-3
MEAN_MOTION_DOT = .736E-5
MEAN_MOTION_DDOT = 0

CCSDS_OMM_VERS = 2.0
CREATION_DATE  = 
ORIGINATOR     = 

OBJECT_NAME    = INTERCOSMOS 25
OBJECT_ID      = 1991-086A
CENTER_NAME    = EARTH
REF_FRAME      = TEME
TIME_SYSTEM    = UTC
MEAN_ELEMENT_THEORY = SGP/SGP4

EPOCH          = 2026-01-01T08:49:12.755136
MEAN_MOTION    = 12.11811038
ECCENTRICITY   = .1486058
INCLINATION    = 82.6076
RA_OF_ASC_NODE = 350.7028
ARG_OF_PERICENTER = 262.0622
MEAN_ANOMALY   = 80.9822

EPHEMERIS_TYPE = 0
CLASSIFICATION_TYPE = U
NORAD_CAT_ID   = 21819
ELEMENT_SET_NO = 999
REV_AT_EPOCH   = 48853
BSTAR          = .48053E-3
MEAN_MOTION_DOT = .2412E-4
MEAN_MOTION_DDOT = 0

CCSDS_OMM_VERS = 2.0
CREATION_DATE  = 
ORIGINATOR     = 

OBJECT_NAME    = SL-8 R/B
OBJECT_ID      = 1992-008B
CENTER_NAME    = EARTH
REF_FRAME      = TEME
TIME_SYSTEM    = UTC
MEAN_ELEMENT_THEORY = SGP/SGP4

EPOCH          = 2026-01-01T09:32:04.490880
MEAN_MOTION    = 13.75963821
ECCENTRICITY   = .0033995
INCLINATION    = 82.9279
RA_OF_ASC_NODE = 317.8254
ARG_OF_PERICENTER = 324.6983
MEAN_ANOMALY   = 153.3669

EPHEMERIS_TYPE = 0
CLASSIFICATION_TYPE = U
NORAD_CAT_ID   = 21876
ELEMENT_SET_NO = 999
REV_AT_EPOCH   = 70016
BSTAR          = .15363E-3
MEAN_MOTION_DOT = .164E-5
MEAN_MOTION_DDOT = 0

CCSDS_OMM_VERS = 2.0
CREATION_DATE  = 
ORIGINATOR     = 

OBJECT_NAME    = SL-8 R/B
OBJECT_ID      = 1992-020B
CENTER_NAME    = EARTH
REF_FRAME      = TEME
TIME_SYSTEM    = UTC
MEAN_ELEMENT_THEORY = SGP/SGP4

EPOCH          = 2026-01-01T16:49:52.123872
MEAN_MOTION    = 13.75533447
ECCENTRICITY   = .0030016
INCLINATION    = 82.9290
RA_OF_ASC_NODE = 203.4940
ARG_OF_PERICENTER = 123.5080
MEAN_ANOMALY   = 308.5850

EPHEMERIS_TYPE = 0
CLASSIFICATION_TYPE = U
NORAD_CAT_ID   = 21938
ELEMENT_SET_NO = 999
REV_AT_EPOCH   = 69192
BSTAR          = .24702E-3
MEAN_MOTION_DOT = .254E-5
MEAN_MOTION_DDOT = 0

CCSDS_OMM_VERS = 2.0
CREATION_DATE  = 
ORIGINATOR     = 

OBJECT_NAME    = USA 81
OBJECT_ID      = 1992-023A
CENTER_NAME    = EARTH
REF_FRAME      = TEME
TIME_SYSTEM    = UTC
MEAN_ELEMENT_THEORY = SGP/SGP4

EPOCH          = 2026-01-01T12:35:46.466304
MEAN_MOTION    = 14.32336144
ECCENTRICITY   = .0001091
INCLINATION    = 85.0089
RA_OF_ASC_NODE = 170.1657
ARG_OF_PERICENTER = 102.9730
MEAN_ANOMALY   = 257.1584

EPHEMERIS_TYPE = 0
CLASSIFICATION_TYPE = U
NORAD_CAT_ID   = 21949
ELEMENT_SET_NO = 999
REV_AT_EPOCH   = 8517
BSTAR          = .13853E-3
MEAN_MOTION_DOT = .394E-5
MEAN_MOTION_DDOT = 0

CCSDS_OMM_VERS = 2.0
CREATION_DATE  = 
ORIGINATOR     = 

OBJECT_NAME    = COSMOS 2219
OBJECT_ID      = 1992-076A
CENTER_NAME    = EARTH
REF_FRAME      = TEME
TIME_SYSTEM    = UTC
MEAN_ELEMENT_THEORY = SGP/SGP4

EPOCH          = 2026-01-01T19:32:56.954976
MEAN_MOTION    = 14.14075417
ECCENTRICITY   = .0019946
INCLINATION    = 71.0601
RA_OF_ASC_NODE = 157.8679
ARG_OF_PERICENTER = 299.1592
MEAN_ANOMALY   = 60.7534

EPHEMERIS_TYPE = 0
CLASSIFICATION_TYPE = U
NORAD_CAT_ID   = 22219
ELEMENT_SET_NO = 999
REV_AT_EPOCH   = 70892
BSTAR          = .25548E-3
MEAN_MOTION_DOT = .44E-5
MEAN_MOTION_DDOT = 0

CCSDS_OMM_VERS = 2.0
CREATION_DATE  = 
ORIGINATOR     = 

OBJECT_NAME    = SL-16 R/B
OBJECT_ID      = 1992-076B
CENTER_NAME    = EARTH
REF_FRAME      = TEME
TIME_SYSTEM    = UTC
MEAN_ELEMENT_THEORY = SGP/SGP4

EPOCH          = 2026-01-01T08:28:48.523296
MEAN_MOTION    = 14.16845653
ECCENTRICITY   = .0013851
INCLINATION    = 71.0012
RA_OF_ASC_NODE = 330.2154
ARG_OF_PERICENTER = 207.6104
MEAN_ANOMALY   = 260.5209

EPHEMERIS_TYPE = 0
CLASSIFICATION_TYPE = U
NORAD_CAT_ID   = 22220
ELEMENT_SET_NO = 999
REV_AT_EPOCH   = 71229
BSTAR          = -.40009E-4
MEAN_MOTION_DOT = -.128E-5
MEAN_MOTION_DDOT = 0

CCSDS_OMM_VERS = 2.0
CREATION_DATE  = 
ORIGINATOR     = 

OBJECT_NAME    = COSMOS 2221
OBJECT_ID      = 1992-080A
CENTER_NAME    = EARTH
REF_FRAME      = TEME
TIME_SYSTEM    = UTC
MEAN_ELEMENT_THEORY = SGP/SGP4

EPOCH          = 2026-01-01T10:02:17.130912
MEAN_MOTION    = 14.95856525
ECCENTRICITY   = .0016112
INCLINATION    = 82.5042
RA_OF_ASC_NODE = 343.4878
ARG_OF_PERICENTER = 61.8364
MEAN_ANOMALY   = 298.4483

EPHEMERIS_TYPE = 0
CLASSIFICATION_TYPE = U
NORAD_CAT_ID   = 22236
ELEMENT_SET_NO = 999
REV_AT_EPOCH   = 77073
BSTAR          = .38519E-3
MEAN_MOTION_DOT = .4339E-4
MEAN_MOTION_DDOT = 0

CCSDS_OMM_VERS = 2.0
CREATION_DATE  = 
ORIGINATOR     = 

OBJECT_NAME    = SL-16 R/B
OBJECT_ID      = 1992-093B
CENTER_NAME    = EARTH
REF_FRAME      = TEME
TIME_SYSTEM    = UTC
MEAN_ELEMENT_THEORY = SGP/SGP4

EPOCH          = 2026-01-01T19:33:02.316960
MEAN_MOTION    = 14.15434718
ECCENTRICITY   = .0002906
INCLINATION    = 71.0212
RA_OF_ASC_NODE = 144.6554
ARG_OF_PERICENTER = 14.0855
MEAN_ANOMALY   = 346.0349

EPHEMERIS_TYPE = 0
CLASSIFICATION_TYPE = U
NORAD_CAT_ID   = 22285
ELEMENT_SET_NO = 999
REV_AT_EPOCH   = 70369
BSTAR          = -.39399E-4
MEAN_MOTION_DOT = -.124E-5
MEAN_MOTION_DDOT = 0

CCSDS_OMM_VERS = 2.0
CREATION_DATE  = 
ORIGINATOR     = 

OBJECT_NAME    = COSMOS 2228
OBJECT_ID      = 1992-094A
CENTER_NAME    = EARTH
REF_FRAME      = TEME
TIME_SYSTEM    = UTC
MEAN_ELEMENT_THEORY = SGP/SGP4

EPOCH          = 2026-01-01T19:30:24.082272
MEAN_MOTION    = 14.96841576
ECCENTRICITY   = .0018382
INCLINATION    = 82.5192
RA_OF_ASC_NODE = 301.3277
ARG_OF_PERICENTER = 161.4544
MEAN_ANOMALY   = 198.7352

EPHEMERIS_TYPE = 0
CLASSIFICATION_TYPE = U
NORAD_CAT_ID   = 22286
ELEMENT_SET_NO = 999
REV_AT_EPOCH   = 76605
BSTAR          = .37136E-3
MEAN_MOTION_DOT = .4294E-4
MEAN_MOTION_DDOT = 0

