SL-14 R/B               
1 21423U 91042B   26001.77074553  .00000868  00000+0  10677-3 0  9990
2 21423  82.4936 282.9415 0018568  99.9916 260.3395 14.81761418843169
ERS-1                   
1 21574U 91050A   26001.75706801  .00000736  00000+0  24989-3 0  9997
2 21574  98.7896  18.3121 0032676  42.3026 318.0672 14.39384070806106
ARIANE 40 R/B           
1 21610U 91050F   26001.75902453  .00000736  00000+0  23311-3 0  9997
2 21610  98.2137  56.4644 0001975 278.8564  81.2403 14.42833082809340
INTERCOSMOS 25          
1 21819U 91086A   26001.36750874  .00002412  00000+0  48053-3 0  9995
2 21819  82.6076 350.7028 1486058 262.0622  80.9822 12.11811038488532
SL-8 R/B                
1 21876U 92008B   26001.39727420  .00000164  00000+0  15363-3 0  9997
2 21876  82.9279 317.8254 0033995 324.6983 153.3669 13.75963821700169
SL-8 R/B                
1 21938U 92020B   26001.70129773  .00000254  00000+0  24702-3 0  9999
2 21938  82.9290 203.4940 0030016 123.5080 308.5850 13.75533447691924
USA 81                  
1 21949U 92023A   26001.52484336  .00000394  00000+0  13853-3 0  9993
2 21949  85.0089 170.1657 0001091 102.9730 257.1584 14.32336144 85171
COSMOS 2219             
1 22219U 92076A   26001.81454809  .00000440  00000+0  25548-3 0  9992
2 22219  71.0601 157.8679 0019946 299.1592  60.7534 14.14075417708927
SL-16 R/B               
1 22220U 92076B   26001.35333939 -.00000128  00000+0 -40009-4 0  9998
2 22220  71.0012 330.2154 0013851 207.6104 260.5209 14.16845653712295
COSMOS 2221             
1 22236U 92080A   26001.41825383  .00004339  00000+0  38519-3 0  9994
2 22236  82.5042 343.4878 0016112  61.8364 298.4483 14.95856525770736
SL-16 R/B               
1 22285U 92093B   26001.81461015 -.00000124  00000+0 -39399-4 0  9992
2 22285  71.0212 144.6554 0002906  14.0855 346.0349 14.15434718703695
COSMOS 2228             
1 22286U 92094A   26001.81277873  .00004294  00000+0  37136-3 0  9997
2 22286  82.5192 301.3277 0018382 161.4544 198.7352 14.96841576766059
